{
  "type": "FeatureCollection",
  "features": [
    {
      "type": "Feature",
      "properties": {
        "norad_id": 43602,
        "name": "BEIDOU-3 M12 (C26)",
        "group": "beidou",
        "lat": -53.634378910826044,
        "lon": 86.0815302431615,
        "alt_km": 21553.12588993365,
        "timestamp": "2025-12-15T15:53:20.118117+00:00",
        "meta_object_name": "BEIDOU-3 M12 (C26)",
        "meta_object_id": "2018-067A",
        "meta_epoch": "2025-12-13T02:54:46.196064",
        "meta_mean_motion": 1.8622768,
        "meta_eccentricity": 0.00091748,
        "meta_inclination": 54.1833,
        "meta_ra_of_asc_node": 187.3503,
        "meta_arg_of_pericenter": 41.0824,
        "meta_mean_anomaly": 319.0476,
        "meta_ephemeris_type": 0,
        "meta_classification_type": "U",
        "meta_norad_cat_id": 43602,
        "meta_element_set_no": 999,
        "meta_rev_at_epoch": 4965,
        "meta_bstar": 0,
        "meta_mean_motion_dot": 9.3e-07,
        "meta_mean_motion_ddot": 0,
        "tle_line1": "1 43602U 18067A   25347.12136801  .00000093  00000+0  00000+0 0  9990",
        "tle_line2": "2 43602  54.1833 187.3503 0009174  41.0824 319.0476  1.86227680 49652"
      },
      "geometry": {
        "type": "Point",
        "coordinates": [
          86.0815302431615,
          -53.634378910826044
        ]
      }
    },
    {
      "type": "Feature",
      "properties": {
        "norad_id": 43603,
        "name": "BEIDOU-3 M11 (C25)",
        "group": "beidou",
        "lat": 5.415904944040905,
        "lon": 3.3067840671436204,
        "alt_km": 21539.233955515123,
        "timestamp": "2025-12-15T15:53:20.118127+00:00",
        "meta_object_name": "BEIDOU-3 M11 (C25)",
        "meta_object_id": "2018-067B",
        "meta_epoch": "2025-12-13T06:08:27.943008",
        "meta_mean_motion": 1.86227177,
        "meta_eccentricity": 0.00055759,
        "meta_inclination": 54.1803,
        "meta_ra_of_asc_node": 187.3097,
        "meta_arg_of_pericenter": 36.863,
        "meta_mean_anomaly": 323.2366,
        "meta_ephemeris_type": 0,
        "meta_classification_type": "U",
        "meta_norad_cat_id": 43603,
        "meta_element_set_no": 999,
        "meta_rev_at_epoch": 4968,
        "meta_bstar": 0,
        "meta_mean_motion_dot": 9.5e-07,
        "meta_mean_motion_ddot": 0,
        "tle_line1": "1 43603U 18067B   25347.25587897  .00000095  00000+0  00000+0 0  9992",
        "tle_line2": "2 43603  54.1803 187.3097 0005575  36.8630 323.2366  1.86227177 49685"
      },
      "geometry": {
        "type": "Point",
        "coordinates": [
          3.3067840671436204,
          5.415904944040905
        ]
      }
    },
    {
      "type": "Feature",
      "properties": {
        "norad_id": 43622,
        "name": "BEIDOU-3 M13 (C32)",
        "group": "beidou",
        "lat": -18.43625479092332,
        "lon": -98.51309630995152,
        "alt_km": 21532.589204311553,
        "timestamp": "2025-12-15T15:53:20.118137+00:00",
        "meta_object_name": "BEIDOU-3 M13 (C32)",
        "meta_object_id": "2018-072A",
        "meta_epoch": "2025-12-12T16:12:36.163584",
        "meta_mean_motion": 1.8623072,
        "meta_eccentricity": 0.0005872,
        "meta_inclination": 56.4592,
        "meta_ra_of_asc_node": 68.8222,
        "meta_arg_of_pericenter": 298.9421,
        "meta_mean_anomaly": 61.0187,
        "meta_ephemeris_type": 0,
        "meta_classification_type": "U",
        "meta_norad_cat_id": 43622,
        "meta_element_set_no": 999,
        "meta_rev_at_epoch": 4918,
        "meta_bstar": 0,
        "meta_mean_motion_dot": -7.4e-07,
        "meta_mean_motion_ddot": 0,
        "tle_line1": "1 43622U 18072A   25346.67541856 -.00000074  00000+0  00000+0 0  9997",
        "tle_line2": "2 43622  56.4592  68.8222 0005872 298.9421  61.0187  1.86230720 49189"
      },
      "geometry": {
        "type": "Point",
        "coordinates": [
          -98.51309630995152,
          -18.43625479092332
        ]
      }
    },
    {
      "type": "Feature",
      "properties": {
        "norad_id": 43623,
        "name": "BEIDOU-3 M14 (C33)",
        "group": "beidou",
        "lat": -50.35677052112787,
        "lon": 15.663569341996192,
        "alt_km": 21526.813840386545,
        "timestamp": "2025-12-15T15:53:20.118148+00:00",
        "meta_object_name": "BEIDOU-3 M14 (C33)",
        "meta_object_id": "2018-072B",
        "meta_epoch": "2025-12-14T16:31:43.622976",
        "meta_mean_motion": 1.86230968,
        "meta_eccentricity": 0.00033007,
        "meta_inclination": 56.4633,
        "meta_ra_of_asc_node": 68.7492,
        "meta_arg_of_pericenter": 334.4118,
        "meta_mean_anomaly": 25.5906,
        "meta_ephemeris_type": 0,
        "meta_classification_type": "U",
        "meta_norad_cat_id": 43623,
        "meta_element_set_no": 999,
        "meta_rev_at_epoch": 4921,
        "meta_bstar": 0,
        "meta_mean_motion_dot": -8.3e-07,
        "meta_mean_motion_ddot": 0,
        "tle_line1": "1 43623U 18072B   25348.68869934 -.00000083  00000+0  00000+0 0  9991",
        "tle_line2": "2 43623  56.4633  68.7492 0003300 334.4118  25.5906  1.86230968 49219"
      },
      "geometry": {
        "type": "Point",
        "coordinates": [
          15.663569341996192,
          -50.35677052112787
        ]
      }
    },
    {
      "type": "Feature",
      "properties": {
        "norad_id": 43647,
        "name": "BEIDOU-3 M16 (C35)",
        "group": "beidou",
        "lat": -5.579358740163281,
        "lon": 130.42856545080107,
        "alt_km": 21548.489126493172,
        "timestamp": "2025-12-15T15:53:20.118158+00:00",
        "meta_object_name": "BEIDOU-3 M16 (C35)",
        "meta_object_id": "2018-078A",
        "meta_epoch": "2025-12-13T05:39:20.780352",
        "meta_mean_motion": 1.8623234,
        "meta_eccentricity": 0.00072054,
        "meta_inclination": 54.2615,
        "meta_ra_of_asc_node": 306.5038,
        "meta_arg_of_pericenter": 19.3609,
        "meta_mean_anomaly": 340.6562,
        "meta_ephemeris_type": 0,
        "meta_classification_type": "U",
        "meta_norad_cat_id": 43647,
        "meta_element_set_no": 999,
        "meta_rev_at_epoch": 4869,
        "meta_bstar": 0,
        "meta_mean_motion_dot": -9.7e-07,
        "meta_mean_motion_ddot": 0,
        "tle_line1": "1 43647U 18078A   25347.23565718 -.00000097  00000+0  00000+0 0  9991",
        "tle_line2": "2 43647  54.2615 306.5038 0007205  19.3609 340.6562  1.86232340 48698"
      },
      "geometry": {
        "type": "Point",
        "coordinates": [
          130.42856545080107,
          -5.579358740163281
        ]
      }
    },
    {
      "type": "Feature",
      "properties": {
        "norad_id": 43648,
        "name": "BEIDOU-3 M15 (C34)",
        "group": "beidou",
        "lat": 53.010651154702884,
        "lon": 53.56126789882887,
        "alt_km": 21520.274712300674,
        "timestamp": "2025-12-15T15:53:20.118169+00:00",
        "meta_object_name": "BEIDOU-3 M15 (C34)",
        "meta_object_id": "2018-078B",
        "meta_epoch": "2025-12-14T10:31:50.376000",
        "meta_mean_motion": 1.86231962,
        "meta_eccentricity": 0.00037442,
        "meta_inclination": 54.256,
        "meta_ra_of_asc_node": 306.4619,
        "meta_arg_of_pericenter": 18.2942,
        "meta_mean_anomaly": 341.7074,
        "meta_ephemeris_type": 0,
        "meta_classification_type": "U",
        "meta_norad_cat_id": 43648,
        "meta_element_set_no": 999,
        "meta_rev_at_epoch": 4873,
        "meta_bstar": 0,
        "meta_mean_motion_dot": -1e-06,
        "meta_mean_motion_ddot": 0,
        "tle_line1": "1 43648U 18078B   25348.43877750 -.00000100  00000+0  00000+0 0  9992",
        "tle_line2": "2 43648  54.2560 306.4619 0003744  18.2942 341.7074  1.86231962 48738"
      },
      "geometry": {
        "type": "Point",
        "coordinates": [
          53.56126789882887,
          53.010651154702884
        ]
      }
    },
    {
      "type": "Feature",
      "properties": {
        "norad_id": 43683,
        "name": "BEIDOU-3 G1 (C59)",
        "group": "beidou",
        "lat": 0.02218739676394269,
        "lon": 102.93093115114576,
        "alt_km": 35782.70475071607,
        "timestamp": "2025-12-15T15:53:20.118180+00:00",
        "meta_object_name": "BEIDOU-3 G1 (C59)",
        "meta_object_id": "2018-085A",
        "meta_epoch": "2025-12-14T22:38:45.675744",
        "meta_mean_motion": 1.00270224,
        "meta_eccentricity": 0.00016305,
        "meta_inclination": 2.6134,
        "meta_ra_of_asc_node": 102.9077,
        "meta_arg_of_pericenter": 55.4139,
        "meta_mean_anomaly": 45.2856,
        "meta_ephemeris_type": 0,
        "meta_classification_type": "U",
        "meta_norad_cat_id": 43683,
        "meta_element_set_no": 999,
        "meta_rev_at_epoch": 2621,
        "meta_bstar": 0,
        "meta_mean_motion_dot": -2.58e-06,
        "meta_mean_motion_ddot": 0,
        "tle_line1": "1 43683U 18085A   25348.94358421 -.00000258  00000+0  00000+0 0  9998",
        "tle_line2": "2 43683   2.6134 102.9077 0001630  55.4139  45.2856  1.00270224 26214"
      },
      "geometry": {
        "type": "Point",
        "coordinates": [
          102.93093115114576,
          0.02218739676394269
        ]
      }
    }
  ]
}